{
    "links": {
        "self": "http://www.neowsapp.com/rest/v1/neo/3445601?api_key=iIulBulltgU6a56xZRHN4H3l9WmuAYTsLGpBGhQ2"
    },
    "id": "3445601",
    "neo_reference_id": "3445601",
    "name": "(2009 CR)",
    "designation": "2009 CR",
    "nasa_jpl_url": "http://ssd.jpl.nasa.gov/sbdb.cgi?sstr=3445601",
    "absolute_magnitude_h": 25.7,
    "estimated_diameter": {
        "kilometers": {
            "estimated_diameter_min": 0.0192555078,
            "estimated_diameter_max": 0.0430566244
        },
        "meters": {
            "estimated_diameter_min": 19.2555078188,
            "estimated_diameter_max": 43.0566244241
        },
        "miles": {
            "estimated_diameter_min": 0.0119648141,
            "estimated_diameter_max": 0.0267541378
        },
        "feet": {
            "estimated_diameter_min": 63.1742402722,
            "estimated_diameter_max": 141.2618956756
        }
    },
    "is_potentially_hazardous_asteroid": false,
    "close_approach_data": [
        {
            "close_approach_date": "2009-01-24",
            "close_approach_date_full": "2009-Jan-24 05:54",
            "epoch_date_close_approach": 1232776440000,
            "relative_velocity": {
                "kilometers_per_second": "4.0423254957",
                "kilometers_per_hour": "14552.3717844064",
                "miles_per_hour": "9042.2779012607"
            },
            "miss_distance": {
                "astronomical": "0.0941530254",
                "lunar": "36.6255268806",
                "kilometers": "14085092.053895898",
                "miles": "8752070.3633954724"
            },
            "orbiting_body": "Earth"
        }
    ],
    "orbital_data": {
        "orbit_id": "6",
        "orbit_determination_date": "2017-04-06 09:01:27",
        "first_observation_date": "2009-02-02",
        "last_observation_date": "2009-02-03",
        "data_arc_in_days": 1,
        "observations_used": 17,
        "orbit_uncertainty": "8",
        "minimum_orbit_intersection": ".0908291",
        "jupiter_tisserand_invariant": "4.099",
        "epoch_osculation": "2454865.5",
        "eccentricity": ".3747772709709299",
        "semi_major_axis": "1.713758471763932",
        "inclination": "3.178484027722817",
        "ascending_node_longitude": "145.4838572227981",
        "orbital_period": "819.4507346083324",
        "perihelion_distance": "1.071480748612934",
        "perihelion_argument": "332.5018048452937",
        "aphelion_distance": "2.35603619491493",
        "perihelion_time": "2454851.091125426498",
        "mean_anomaly": "6.330087493228023",
        "mean_motion": ".4393186616301795",
        "equinox": "J2000",
        "orbit_class": {
            "orbit_class_type": "AMO",
            "orbit_class_description": "Near-Earth asteroid orbits similar to that of 1221 Amor",
            "orbit_class_range": "1.017 AU < q (perihelion) < 1.3 AU"
        }
    },
    "is_sentry_object": false
}